PROPCUBE 3              
1 40973U 15058K   26068.73202292  .00005546  00000+0  46586-3 0  9992
2 40973  64.7688 203.0958 0123527  99.6156 261.8939 14.93528956 99948
STARLINK-3800           
1 52379U 22045BA  26068.60888495 -.00000060  00000+0  14325-4 0  9994
2 52379  53.2173 189.4867 0001345  92.8265 267.2881 15.08838707215916
